ORBCOMM FM05            
1 25117U 97084F   25161.37663014  .00000954  00000+0  30602-3 0  9990
2 25117  45.0162  40.7540 0001479 166.4080 193.6811 14.45925550439625
ORBCOMM FM06            
1 25118U 97084G   25161.86433799  .00001032  00000+0  32696-3 0  9993
2 25118  45.0155  38.1573 0000578 146.6665 273.5094 14.46060406440638
ORBCOMM FM07            
1 25119U 97084H   25161.38257667  .00000940  00000+0  30151-3 0  9990
2 25119  45.0150  41.2396 0002322 162.6783 197.4149 14.46054883440536
ORBCOMM FM03            
1 25158U 98007B   25161.77882393  .00000688  00000+0  28718-3 0  9997
2 25158 107.9651 122.4338 0046527 261.2190  98.3679 14.34495208423269
ORBCOMM FM04            
1 25159U 98007C   25161.83385647  .00000612  00000+0  25988-3 0  9998
2 25159 107.9640 125.7639 0042263 258.6657 100.9733 14.34744375423420
ORBCOMM FM17            
1 25413U 98046A   25161.50660775  .00000470  00000+0  21219-3 0  9991
2 25413  44.9949 289.1349 0004116 188.0960 171.9821 14.35086913402214
ORBCOMM FM18            
1 25414U 98046B   25161.54421215  .00000603  00000+0  24159-3 0  9994
2 25414  44.9914 206.5328 0007054 252.9005 107.1071 14.38544251403465
ORBCOMM FM19            
1 25415U 98046C   25161.42340503  .00000619  00000+0  24773-3 0  9991
2 25415  44.9927 209.0947 0005796 248.8746 125.2568 14.38352470403239
